NORAD_CAT_ID,OBJECT_NAME,OBJECT_TYPE,EPOCH,MEAN_MOTION,ECCENTRICITY,INCLINATION,RA_OF_ASC_NODE,ARG_OF_PERICENTER,MEAN_ANOMALY,BSTAR,MEAN_MOTION_DOT,MEAN_MOTION_DDOT,TLE_LINE0,TLE_LINE1,TLE_LINE2,SEMIMAJOR_AXIS,PERIOD,APOGEE,PERIGEE,DECAYED
49769.0,STARLINK-3208,PAYLOAD,2023-01-18 21:40:30,15.08845567,0.0001347,53.2153,242.7657,68.687,291.4266,0.00023707,3.488e-05,0.0,0 STARLINK-3208,1 49769U 21115AX  23018.90312515  .00003488  00000-0  23707-3 0  9990,2 49769  53.2153 242.7657 0001347  68.6870 291.4266 15.08845567 63816,6917.863,95.437,540.66,538.797,0.0
49769.0,STARLINK-3208,PAYLOAD,2023-01-19 07:12:49,15.08839296,0.0001351999999999,53.2143,240.9819,66.3745,293.7389,0.00010888,1.445e-05,0.0,0 STARLINK-3208,1 49769U 21115AX  23019.30057180  .00001445  00000-0  10888-3 0  9996,2 49769  53.2143 240.9819 0001352  66.3745 293.7389 15.08839296 63876,6917.883000000001,95.438,540.683,538.812,0.0
49769.0,STARLINK-3208,PAYLOAD,2023-01-20 07:03:36,15.08839752,0.0001344,53.2153,236.5215,76.5288,283.5854,4.565e-05,4.39e-06,0.0,0 STARLINK-3208,1 49769U 21115AX  23020.29417478  .00000439  00000-0  45650-4 0  9994,2 49769  53.2153 236.5215 0001344  76.5288 283.5854 15.08839752 62919,6917.880999999999,95.438,540.6759999999999,538.816,0.0
49769.0,STARLINK-3208,PAYLOAD,2023-01-20 21:22:04,15.08846705,0.0001315999999999,53.2161,233.846,83.7303,276.3839,6.6702e-05,7.74e-06,0.0,0 STARLINK-3208,1 49769U 21115AX  23020.89033051  .00000774  00000-0  66702-4 0  9994,2 49769  53.2161 233.8460 0001316  83.7303 276.3839 15.08846705 64110,6917.86,95.437,540.635,538.815,0.0
49769.0,STARLINK-3208,PAYLOAD,2023-01-22 14:42:06,15.08839557,0.0001629999999999,53.2153,226.1129,80.6776,279.4401,-4.5281e-06,-3.6000000000000003e-06,0.0,0 STARLINK-3208,1 49769U 21115AX  23022.61257732 -.00000360  00000-0 -45281-5 0  9993,2 49769  53.2153 226.1129 0001630  80.6776 279.4401 15.08839557 64371,6917.882,95.438,540.874,538.619,0.0
49769.0,STARLINK-3208,PAYLOAD,2023-01-23 19:19:02,15.08843118,0.0001152,53.2157,220.7608,77.2708,282.8413,6.297e-05,7.15e-06,0.0,0 STARLINK-3208,1 49769U 21115AX  23023.80489297  .00000715  00000-0  62970-4 0  9993,2 49769  53.2157 220.7608 0001152  77.2708 282.8413 15.08843118 64552,6917.871,95.437,540.533,538.939,0.0
49769.0,STARLINK-3208,PAYLOAD,2023-01-25 12:39:04,15.08839497,0.0001286,53.2159,213.0306,73.09100000000001,287.0223,7.027e-05,8.31e-06,0.0,0 STARLINK-3208,1 49769U 21115AX  23025.52713565  .00000831  00000-0  70270-4 0  9993,2 49769  53.2159 213.0306 0001286  73.0910 287.0223 15.08839497 64811,6917.882,95.438,540.637,538.857,0.0
49769.0,STARLINK-3208,PAYLOAD,2023-01-25 17:25:13,15.08838057,0.0001211999999999,53.2159,212.1381,71.6746,288.4378,6.3434e-05,7.22e-06,0.0,0 STARLINK-3208,1 49769U 21115AX  23025.72585638  .00000722  00000-0  63434-4 0  9996,2 49769  53.2159 212.1381 0001212  71.6746 288.4378 15.08838057 63731,6917.886,95.438,540.59,538.913,0.0
49769.0,STARLINK-3208,PAYLOAD,2023-01-26 12:29:51,15.08839911,0.0001171,53.2151,208.5685,74.6166,285.4956,2.3981e-05,9.4e-07,0.0,0 STARLINK-3208,1 49769U 21115AX  23026.52073570  .00000094  00000-0  23981-4 0  9997,2 49769  53.2151 208.5685 0001171  74.6166 285.4956 15.08839911 63854,6917.880999999999,95.438,540.556,538.936,0.0
49769.0,STARLINK-3208,PAYLOAD,2023-01-26 15:40:37,15.08840588,0.0001151,53.2151,207.9738,73.47,286.6418,2.6379e-05,1.32e-06,0.0,0 STARLINK-3208,1 49769U 21115AX  23026.65321494  .00000132  00000-0  26379-4 0  9999,2 49769  53.2151 207.9738 0001151  73.4700 286.6418 15.08840588 64988,6917.879,95.438,540.54,538.947,0.0
49769.0,STARLINK-3208,PAYLOAD,2023-01-27 12:20:38,15.08835408,0.0001238,53.2164,204.1075,94.9741,265.1393,4.2971000000000006e-05,3.96e-06,0.0,0 STARLINK-3208,1 49769U 21115AX  23027.51433697  .00000396  00000-0  42971-4 0  9992,2 49769  53.2164 204.1075 0001238  94.9741 265.1393 15.08835408 64006,6917.894,95.438,540.616,538.903,0.0
49769.0,STARLINK-3208,PAYLOAD,2023-01-27 18:42:11,15.08837411,0.0001237,53.2166,202.9182,95.5989,264.5144,5.602e-05,6.04e-06,0.0,0 STARLINK-3208,1 49769U 21115AX  23027.77929591  .00000604  00000-0  56020-4 0  9995,2 49769  53.2166 202.9182 0001237  95.5989 264.5144 15.08837411 65153,6917.888000000001,95.438,540.609,538.898,0.0
49769.0,STARLINK-3208,PAYLOAD,2023-01-28 12:11:25,15.08837206,0.0001237,53.2167,199.6472,93.4022,266.7111,2.6017e-05,1.26e-06,0.0,0 STARLINK-3208,1 49769U 21115AX  23028.50793814  .00000126  00000-0  26017-4 0  9996,2 49769  53.2167 199.6472 0001237  93.4022 266.7111 15.08837206 64152,6917.889,95.438,540.61,538.898,0.0
49769.0,STARLINK-3208,PAYLOAD,2023-01-28 20:08:21,15.08840229,0.0001205,53.2164,198.1603,89.6654,270.4476,4.4098e-05,4.14e-06,0.0,0 STARLINK-3208,1 49769U 21115AX  23028.83913590  .00000414  00000-0  44098-4 0  9996,2 49769  53.2164 198.1603 0001205  89.6654 270.4476 15.08840229 65316,6917.88,95.438,540.578,538.911,0.0
49769.0,STARLINK-3208,PAYLOAD,2023-01-29 18:23:45,15.08838231,0.0001185,53.2169,193.9972,92.0069,268.1059,3.4915e-05,2.68e-06,0.0,0 STARLINK-3208,1 49769U 21115AX  23029.76649888  .00000268  00000-0  34915-4 0  9999,2 49769  53.2169 193.9972 0001185  92.0069 268.1059 15.08838231 64341,6917.886,95.438,540.571,538.931,0.0
49769.0,STARLINK-3208,PAYLOAD,2023-01-30 03:56:04,15.0883684,0.0001176,53.2168,192.2129,86.2216,273.891,3.2781e-05,2.34e-06,0.0,0 STARLINK-3208,1 49769U 21115AX  23030.16394044  .00000234  00000-0  32781-4 0  9998,2 49769  53.2168 192.2129 0001176  86.2216 273.8910 15.08836840 65518,6917.89,95.438,540.569,538.942,0.0
49769.0,STARLINK-3208,PAYLOAD,2023-01-30 11:53:00,15.0883576,0.0001165,53.2166,190.726,86.8495,273.2631,3.6205e-05,2.88e-06,0.0,0 STARLINK-3208,1 49769U 21115AX  23030.49514170  .00000288  00000-0  36205-4 0  9992,2 49769  53.2166 190.7260 0001165  86.8495 273.2631 15.08835760 64454,6917.893,95.438,540.564,538.952,0.0
49769.0,STARLINK-3208,PAYLOAD,2023-01-31 10:08:24,15.08838066,0.0001233,53.2172,186.5633,85.5104,274.6029,5.5275e-05,5.92e-06,0.0,0 STARLINK-3208,1 49769U 21115AX  23031.42250041  .00000592  00000-0  55275-4 0  9996,2 49769  53.2172 186.5633 0001233  85.5104 274.6029 15.08838066 65704,6917.886,95.438,540.604,538.898,0.0
49769.0,STARLINK-3208,PAYLOAD,2023-02-01 13:09:57,15.08838933,0.0001372,53.2165,181.509,82.6065,277.5083,2.5512e-05,1.18e-06,0.0,0 STARLINK-3208,1 49769U 21115AX  23032.54858020  .00000118  00000-0  25512-4 0  9996,2 49769  53.2165 181.5090 0001372  82.6065 277.5083 15.08838933 64766,6917.884,95.438,540.698,538.8,0.0
49769.0,STARLINK-3208,PAYLOAD,2023-02-02 13:00:44,15.08836038,0.0001185,53.2152,177.048,91.1548,268.958,-3.9149e-05,-9.11e-06,0.0,0 STARLINK-3208,1 49769U 21115AX  23033.54218376 -.00000911  00000-0 -39149-4 0  9995,2 49769  53.2152 177.0480 0001185  91.1548 268.9580 15.08836038 64915,6917.892,95.438,540.577,538.938,0.0
49769.0,STARLINK-3208,PAYLOAD,2023-02-03 09:40:45,15.08835077,0.0001231,53.2151,173.1805,106.84,253.2727,1.7362e-06,-2.6e-06,0.0,0 STARLINK-3208,1 49769U 21115AX  23034.40330443 -.00000260  00000-0  17362-5 0  9991,2 49769  53.2151 173.1805 0001231 106.8400 253.2727 15.08835077 66155,6917.895,95.438,540.612,538.909,0.0
49769.0,STARLINK-3208,PAYLOAD,2023-02-03 19:13:04,15.08838496,0.0001158,53.2156,171.3975,100.8293,259.283,3.701e-05,3.01e-06,0.0,0 STARLINK-3208,1 49769U 21115AX  23034.80074235  .00000301  00000-0  37010-4 0  9995,2 49769  53.2156 171.3975 0001158 100.8293 259.2830 15.08838496 65103,6917.885,95.438,540.551,538.949,0.0
49769.0,STARLINK-3208,PAYLOAD,2023-02-04 14:17:41,15.08838152,0.0001085,53.2157,167.8291,102.9452,257.1662,7.9113e-05,9.71e-06,0.0,0 STARLINK-3208,1 49769U 21115AX  23035.59562320  .00000971  00000-0  79113-4 0  9992,2 49769  53.2157 167.8291 0001085 102.9452 257.1662 15.08838152 66339,6917.886,95.438,540.502,539.0,0.0
49769.0,STARLINK-3208,PAYLOAD,2023-02-04 19:03:50,15.08845301,0.0001053,53.2166,166.9366,101.0429,259.0682,9.4164e-05,1.211e-05,0.0,0 STARLINK-3208,1 49769U 21115AX  23035.79433797  .00001211  00000-0  94164-4 0  9990,2 49769  53.2166 166.9366 0001053 101.0429 259.0682 15.08845301 65258,6917.864,95.437,540.458,539.001,0.0
49769.0,STARLINK-3208,PAYLOAD,2023-02-05 01:25:23,15.08848991,9.65e-05,53.2165,165.7479,98.5187,261.5915,0.00011924,1.611e-05,0.0,0 STARLINK-3208,1 49769U 21115AX  23036.05929509  .00001611  00000-0  11924-3 0  9997,2 49769  53.2165 165.7479 0000965  98.5187 261.5915 15.08848991 66404,6917.853,95.437,540.385,539.05,0.0
49769.0,STARLINK-3208,PAYLOAD,2023-02-05 14:08:27,15.08858475,8.95e-05,53.2162,163.3685,94.3015,265.808,0.00018109,2.597e-05,0.0,0 STARLINK-3208,1 49769U 21115AX  23036.58920417  .00002597  00000-0  18109-3 0  9990,2 49769  53.2162 163.3685 0000895  94.3015 265.8080 15.08858475 66486,6917.824,95.436,540.308,539.07,0.0
49769.0,STARLINK-3208,PAYLOAD,2023-02-05 17:19:13,15.08864534,0.0001009,53.2169,162.7739,98.3418,261.7689,0.00023728,3.493e-05,0.0,0 STARLINK-3208,1 49769U 21115AX  23036.72167832  .00003493  00000-0  23728-3 0  9999,2 49769  53.2169 162.7739 0001009  98.3418 261.7689 15.08864534 65397,6917.805,95.436,540.368,538.972,0.0
49769.0,STARLINK-3208,PAYLOAD,2023-02-06 01:16:10,15.08838564,9.17e-05,53.2166,161.2871,99.489,260.6205,1.7912e-05,-3e-08,0.0,0 STARLINK-3208,1 49769U 21115AX  23037.05289915 -.00000003  00000-0  17912-4 0  9997,2 49769  53.2166 161.2871 0000917  99.4890 260.6205 15.08838564 66553,6917.885,95.438,540.384,539.115,0.0
49769.0,STARLINK-3208,PAYLOAD,2023-02-06 10:48:30,15.08825263,0.0001018,53.2164,159.5032,100.0729,260.0378,-5.5315e-05,-1.168e-05,0.0,0 STARLINK-3208,1 49769U 21115AX  23037.45035289 -.00001168  00000-0 -55315-4 0  9997,2 49769  53.2164 159.5032 0001018 100.0729 260.0378 15.08825263 66617,6917.925,95.438,540.495,539.086,0.0
49769.0,STARLINK-3208,PAYLOAD,2023-02-06 13:59:15,15.08827869,0.0001216,53.2147,158.9092,92.7045,267.4087,-0.00028025,-4.744e-05,0.0,0 STARLINK-3208,1 49769U 21115AX  23037.58282300 -.00004744  00000-0 -28025-3 0  9999,2 49769  53.2147 158.9092 0001216  92.7045 267.4087 15.08827869 65526,6917.917,95.438,540.624,538.941,0.0
